ONEWEB-0116             
1 48046U 21025E   24138.41833252 -.00000241  00000+0 -69600-3 0  9990
2 48046  87.8903 111.6335 0001933  90.8716 269.2635 13.13469680153784
ONEWEB-0150             
1 48047U 21025F   24138.46911376  .00000200  00000+0  51284-3 0  9992
2 48047  87.8898 111.6447 0002005  81.6326 278.5030 13.13471721153688
ONEWEB-0107             
1 48048U 21025G   24138.47071107  .00000119  00000+0  29198-3 0  9991
2 48048  87.8897 111.6423 0002087  76.8476 283.2886 13.13469664153667
ONEWEB-0101             
1 48049U 21025H   24138.43419269 -.00001166  00000+0 -32294-2 0  9998
2 48049  87.8903 111.6642 0002234  87.0955 273.0430 13.13473912153639
ONEWEB-0113             
1 48050U 21025J   24138.48816234 -.00000274  00000+0 -78429-3 0  9998
2 48050  87.8904 111.6349 0001949  90.0094 270.1258 13.13469854153722
ONEWEB-0112             
1 48051U 21025K   24138.47546558  .00000007  00000+0 -15735-4 0  9992
2 48051  87.8897 111.6391 0001924  83.5361 276.5987 13.13471213153730
ONEWEB-0156             
1 48052U 21025L   24138.48497797 -.00000176  00000+0 -51726-3 0  9991
2 48052  87.8902 111.6331 0001991  83.8574 276.2782 13.13467561153714
ONEWEB-0161             
1 48053U 21025M   24138.45800977  .00000399  00000+0  10579-2 0  9992
2 48053  87.8905 111.6450 0002212  82.9231 277.2149 13.13471221153645
